[{"OBJECT_NAME":"HXMT (HUIYAN)","OBJECT_ID":"2017-034A","EPOCH":"2026-03-30T13:49:12.746208","MEAN_MOTION":15.17726245,"ECCENTRICITY":0.00316513,"INCLINATION":43.0132,"RA_OF_ASC_NODE":260.531,"ARG_OF_PERICENTER":4.2419,"MEAN_ANOMALY":355.8692,"EPHEMERIS_TYPE":0,"CLASSIFICATION_TYPE":"U","NORAD_CAT_ID":42758,"ELEMENT_SET_NO":999,"REV_AT_EPOCH":48571,"BSTAR":0.00033758781,"MEAN_MOTION_DOT":6.786e-5,"MEAN_MOTION_DDOT":0},{"OBJECT_NAME":"SAOCOM 1A","OBJECT_ID":"2018-076A","EPOCH":"2026-03-30T13:17:23.917920","MEAN_MOTION":14.82164703,"ECCENTRICITY":0.00014578,"INCLINATION":97.8902,"RA_OF_ASC_NODE":277.432,"ARG_OF_PERICENTER":86.4691,"MEAN_ANOMALY":273.6689,"EPHEMERIS_TYPE":0,"CLASSIFICATION_TYPE":"U","NORAD_CAT_ID":43641,"ELEMENT_SET_NO":999,"REV_AT_EPOCH":40445,"BSTAR":0.00013637926,"MEAN_MOTION_DOT":1.034e-5,"MEAN_MOTION_DDOT":0},{"OBJECT_NAME":"H-2A R/B","OBJECT_ID":"2018-084L","EPOCH":"2026-03-30T13:34:45.762816","MEAN_MOTION":15.42240812,"ECCENTRICITY":0.00236508,"INCLINATION":98.8703,"RA_OF_ASC_NODE":311.4281,"ARG_OF_PERICENTER":312.3722,"MEAN_ANOMALY":47.5518,"EPHEMERIS_TYPE":0,"CLASSIFICATION_TYPE":"U","NORAD_CAT_ID":43682,"ELEMENT_SET_NO":999,"REV_AT_EPOCH":40899,"BSTAR":0.00062028023,"MEAN_MOTION_DOT":0.0002687,"MEAN_MOTION_DDOT":0},{"OBJECT_NAME":"SAOCOM 1B","OBJECT_ID":"2020-059A","EPOCH":"2026-03-30T14:02:23.449632","MEAN_MOTION":14.82156543,"ECCENTRICITY":0.00014753,"INCLINATION":97.8894,"RA_OF_ASC_NODE":276.5602,"ARG_OF_PERICENTER":85.8313,"MEAN_ANOMALY":274.3069,"EPHEMERIS_TYPE":0,"CLASSIFICATION_TYPE":"U","NORAD_CAT_ID":46265,"ELEMENT_SET_NO":999,"REV_AT_EPOCH":30184,"BSTAR":1.2461258e-5,"MEAN_MOTION_DOT":4.7e-7,"MEAN_MOTION_DDOT":0},{"OBJECT_NAME":"CSS (TIANHE)","OBJECT_ID":"2021-035A","EPOCH":"2026-03-30T10:36:12.170592","MEAN_MOTION":15.6169561,"ECCENTRICITY":0.00037758,"INCLINATION":41.4666,"RA_OF_ASC_NODE":81.7909,"ARG_OF_PERICENTER":67.1765,"MEAN_ANOMALY":292.9473,"EPHEMERIS_TYPE":0,"CLASSIFICATION_TYPE":"U","NORAD_CAT_ID":48274,"ELEMENT_SET_NO":999,"REV_AT_EPOCH":28085,"BSTAR":0.00032197763,"MEAN_MOTION_DOT":0.00028355,"MEAN_MOTION_DDOT":0},{"OBJECT_NAME":"COSMOS 2550","OBJECT_ID":"2021-056A","EPOCH":"2026-03-28T11:49:31.757952","MEAN_MOTION":15.33828274,"ECCENTRICITY":0.000844,"INCLINATION":67.1421,"RA_OF_ASC_NODE":344.0047,"ARG_OF_PERICENTER":269.5686,"MEAN_ANOMALY":90.4502,"EPHEMERIS_TYPE":0,"CLASSIFICATION_TYPE":"U","NORAD_CAT_ID":48865,"ELEMENT_SET_NO":999,"REV_AT_EPOCH":26634,"BSTAR":1.89685e-7,"MEAN_MOTION_DOT":-1.86e-6,"MEAN_MOTION_DDOT":0},{"OBJECT_NAME":"CZ-2C R/B","OBJECT_ID":"2022-058K","EPOCH":"2026-03-30T12:37:00.420384","MEAN_MOTION":15.55811886,"ECCENTRICITY":0.00414975,"INCLINATION":50.1881,"RA_OF_ASC_NODE":210.9842,"ARG_OF_PERICENTER":290.2185,"MEAN_ANOMALY":69.4326,"EPHEMERIS_TYPE":0,"CLASSIFICATION_TYPE":"U","NORAD_CAT_ID":52794,"ELEMENT_SET_NO":999,"REV_AT_EPOCH":21337,"BSTAR":0.00069335303,"MEAN_MOTION_DOT":0.00050627,"MEAN_MOTION_DDOT":0},{"OBJECT_NAME":"CZ-2C R/B","OBJECT_ID":"2022-132E","EPOCH":"2026-03-30T13:34:26.766912","MEAN_MOTION":15.63827446,"ECCENTRICITY":0.00171544,"INCLINATION":97.2954,"RA_OF_ASC_NODE":93.5469,"ARG_OF_PERICENTER":22.5426,"MEAN_ANOMALY":337.6583,"EPHEMERIS_TYPE":0,"CLASSIFICATION_TYPE":"U","NORAD_CAT_ID":54039,"ELEMENT_SET_NO":999,"REV_AT_EPOCH":19363,"BSTAR":0.00054038532,"MEAN_MOTION_DOT":0.00051077,"MEAN_MOTION_DDOT":0},{"OBJECT_NAME":"GSLV R/B","OBJECT_ID":"2022-138AN","EPOCH":"2026-03-30T10:40:56.576064","MEAN_MOTION":14.96905092,"ECCENTRICITY":0.00239746,"INCLINATION":87.386,"RA_OF_ASC_NODE":159.4139,"ARG_OF_PERICENTER":78.3361,"MEAN_ANOMALY":282.056,"EPHEMERIS_TYPE":0,"CLASSIFICATION_TYPE":"U","NORAD_CAT_ID":54149,"ELEMENT_SET_NO":999,"REV_AT_EPOCH":18703,"BSTAR":0.00029097714,"MEAN_MOTION_DOT":3.386e-5,"MEAN_MOTION_DDOT":0},{"OBJECT_NAME":"XRISM","OBJECT_ID":"2023-137A","EPOCH":"2026-03-30T10:34:33.589920","MEAN_MOTION":15.11742655,"ECCENTRICITY":0.00079618,"INCLINATION":31.0018,"RA_OF_ASC_NODE":149.4202,"ARG_OF_PERICENTER":247.7417,"MEAN_ANOMALY":112.2377,"EPHEMERIS_TYPE":0,"CLASSIFICATION_TYPE":"U","NORAD_CAT_ID":57800,"ELEMENT_SET_NO":999,"REV_AT_EPOCH":14093,"BSTAR":0.00041671153,"MEAN_MOTION_DOT":7.385e-5,"MEAN_MOTION_DDOT":0},{"OBJECT_NAME":"ACS3","OBJECT_ID":"2024-077B","EPOCH":"2026-03-30T14:06:33.942240","MEAN_MOTION":13.90583245,"ECCENTRICITY":0.00728737,"INCLINATION":97.1963,"RA_OF_ASC_NODE":26.0027,"ARG_OF_PERICENTER":29.0664,"MEAN_ANOMALY":331.4527,"EPHEMERIS_TYPE":0,"CLASSIFICATION_TYPE":"U","NORAD_CAT_ID":59588,"ELEMENT_SET_NO":999,"REV_AT_EPOCH":9710,"BSTAR":0.021155866,"MEAN_MOTION_DOT":0.00026979,"MEAN_MOTION_DDOT":0},{"OBJECT_NAME":"SZ-21 MODULE","OBJECT_ID":"2025-246C","EPOCH":"2026-03-30T07:26:18.451392","MEAN_MOTION":15.70166693,"ECCENTRICITY":0.00020203,"INCLINATION":41.4738,"RA_OF_ASC_NODE":76.2734,"ARG_OF_PERICENTER":214.1142,"MEAN_ANOMALY":145.9571,"EPHEMERIS_TYPE":0,"CLASSIFICATION_TYPE":"U","NORAD_CAT_ID":66515,"ELEMENT_SET_NO":999,"REV_AT_EPOCH":2131,"BSTAR":0.00038893019,"MEAN_MOTION_DOT":0.00048483,"MEAN_MOTION_DDOT":0}]
