HXMT (HUIYAN)           
1 42758U 17034A   26089.57584197  .00006786  00000+0  33759-3 0  9998
2 42758  43.0132 260.5310 0031651   4.2419 355.8692 15.17726245485717
SAOCOM 1A               
1 43641U 18076A   26089.55374905  .00001034  00000+0  13638-3 0  9994
2 43641  97.8902 277.4320 0001457  86.4691 273.6689 14.82164703404455
H-2A R/B                
1 43682U 18084L   26089.56580744  .00026870  00000+0  62028-3 0  9991
2 43682  98.8703 311.4281 0023650 312.3722  47.5518 15.42240812408995
SAOCOM 1B               
1 46265U 20059A   26089.58499363  .00000047  00000+0  12461-4 0  9999
2 46265  97.8894 276.5602 0001475  85.8313 274.3069 14.82156543301849
CSS (TIANHE)            
1 48274U 21035A   26089.44180753  .00028355  00000+0  32198-3 0  9991
2 48274  41.4666  81.7909 0003775  67.1765 292.9473 15.61695610280851
COSMOS 2550             
1 48865U 21056A   26087.49272868 -.00000186  00000+0  18968-6 0  9997
2 48865  67.1421 344.0047 0008440 269.5686  90.4502 15.33828274266348
CZ-2C R/B               
1 52794U 22058K   26089.52569931  .00050627  00000+0  69335-3 0  9997
2 52794  50.1881 210.9842 0041497 290.2185  69.4326 15.55811886213374
CZ-2C R/B               
1 54039U 22132E   26089.56558758  .00051077  00000+0  54039-3 0  9998
2 54039  97.2954  93.5469 0017154  22.5426 337.6583 15.63827446193637
GSLV R/B                
1 54149U 22138AN  26089.44509926  .00003386  00000+0  29098-3 0  9993
2 54149  87.3860 159.4139 0023974  78.3361 282.0560 14.96905092187039
XRISM                   
1 57800U 23137A   26089.44066655  .00007385  00000+0  41671-3 0  9991
2 57800  31.0018 149.4202 0007961 247.7417 112.2377 15.11742655140939
ACS3                    
1 59588U 24077B   26089.58789285  .00026979  00000+0  21156-1 0  9990
2 59588  97.1963  26.0027 0072873  29.0664 331.4527 13.90583245 97105
SZ-21 MODULE            
1 66515U 25246C   26089.30993578  .00048483  00000+0  38893-3 0  9991
2 66515  41.4738  76.2734 0002020 214.1142 145.9571 15.70166693 21313
